IRIDIUM 124             
1 42810U 17039H   22231.06533051  .00000275  00000+0  75707-4 0  9991
2 42810  86.4551 154.7204 0002261  89.7447 270.4013 14.43279437273451
IRIDIUM 128             
1 42811U 17039J   22229.44334892  .00000123  00000+0  36957-4 0  9999
2 42811  86.3932 250.0681 0001962  85.3360 274.8060 14.34221480269355
IRIDIUM 121             
1 42812U 17039K   22230.93680189  .00000121  00000+0  36030-4 0  9999
2 42812  86.3976 217.9432 0002137  83.3936 276.7503 14.34218130269410
IRIDIUM 133             
1 42955U 17061A   22230.45184488  .00000134  00000+0  40669-4 0  9997
2 42955  86.3935 249.7302 0002038  87.1959 272.9471 14.34218909254295
IRIDIUM 100             
1 42956U 17061B   22231.07341905  .00000127  00000+0  38392-4 0  9998
2 42956  86.3932 249.4222 0002190  91.6581 268.4866 14.34218861254409
IRIDIUM 122             
1 42957U 17061C   22230.48353334  .00000121  00000+0  36053-4 0  9998
2 42957  86.3932 249.6657 0001939  86.6462 273.4955 14.34221565254305
IRIDIUM 129             
1 42958U 17061D   22231.13683724  .00000124  00000+0  37222-4 0  9993
2 42958  86.3933 249.4446 0002014  85.8831 274.2595 14.34219728254416
IRIDIUM 119             
1 42959U 17061E   22230.47720032  .00000124  00000+0  37300-4 0  9991
2 42959  86.3934 249.7092 0002091  85.8181 274.3254 14.34218497254337
IRIDIUM 107             
1 42960U 17061F   22230.49623731  .00000112  00000+0  32932-4 0  9996
2 42960  86.3935 249.7139 0002139  90.3335 269.8106 14.34215022254355
IRIDIUM 132             
1 42961U 17061G   22230.57234838  .00000117  00000+0  34815-4 0  9999
2 42961  86.3934 249.6701 0002032  94.8653 265.2775 14.34215686254351
IRIDIUM 136             
1 42962U 17061H   22230.46452641  .00000130  00000+0  39291-4 0  9990
2 42962  86.3935 249.7164 0002169  84.0426 276.1017 14.34219429254356
IRIDIUM 139             
1 42963U 17061J   22229.42433839  .00000112  00000+0  32781-4 0  9990
2 42963  86.3935 250.1912 0002059  91.4580 268.6852 14.34219014254213
IRIDIUM 125             
1 42964U 17061K   22230.45818158  .00000132  00000+0  39986-4 0  9993
2 42964  86.3937 249.7944 0002053  91.3552 268.7879 14.34219233254377
IRIDIUM 135             
1 43070U 17083A   22230.15322902  .00000211  00000+0  68327-4 0  9999
2 43070  86.4022 186.6924 0002475  90.2179 269.9300 14.34220284243626
IRIDIUM 138             
1 43071U 17083B   22230.31813919  .00000218  00000+0  70777-4 0  9990
2 43071  86.4012 186.4249 0002111  81.7446 278.3989 14.34219515243636
IRIDIUM 116             
1 43072U 17083C   22230.63526948  .00000195  00000+0  62446-4 0  9997
2 43072  86.4022 186.4938 0002503  82.1752 277.9728 14.34217264243717
IRIDIUM 130             
1 43073U 17083D   22231.23147656  .00000206  00000+0  66646-4 0  9999
2 43073  86.4032 186.3835 0002161  79.4115 280.7324 14.34216427243743
