[{"OBJECT_NAME":"IRIDIUM 124","OBJECT_ID":"2017-039H","EPOCH":"2022-08-19T01:34:04.556064","MEAN_MOTION":14.43279437,"ECCENTRICITY":0.0002261,"INCLINATION":86.4551,"RA_OF_ASC_NODE":154.7204,"ARG_OF_PERICENTER":89.7447,"MEAN_ANOMALY":270.4013,"EPHEMERIS_TYPE":0,"CLASSIFICATION_TYPE":"U","NORAD_CAT_ID":42810,"ELEMENT_SET_NO":999,"REV_AT_EPOCH":27345,"BSTAR":7.5707e-5,"MEAN_MOTION_DOT":2.75e-6,"MEAN_MOTION_DDOT":0},{"OBJECT_NAME":"IRIDIUM 128","OBJECT_ID":"2017-039J","EPOCH":"2022-08-17T10:38:25.346688","MEAN_MOTION":14.3422148,"ECCENTRICITY":0.0001962,"INCLINATION":86.3932,"RA_OF_ASC_NODE":250.0681,"ARG_OF_PERICENTER":85.336,"MEAN_ANOMALY":274.806,"EPHEMERIS_TYPE":0,"CLASSIFICATION_TYPE":"U","NORAD_CAT_ID":42811,"ELEMENT_SET_NO":999,"REV_AT_EPOCH":26935,"BSTAR":3.6957e-5,"MEAN_MOTION_DOT":1.23e-6,"MEAN_MOTION_DDOT":0},{"OBJECT_NAME":"IRIDIUM 121","OBJECT_ID":"2017-039K","EPOCH":"2022-08-18T22:28:59.683296","MEAN_MOTION":14.3421813,"ECCENTRICITY":0.0002137,"INCLINATION":86.3976,"RA_OF_ASC_NODE":217.9432,"ARG_OF_PERICENTER":83.3936,"MEAN_ANOMALY":276.7503,"EPHEMERIS_TYPE":0,"CLASSIFICATION_TYPE":"U","NORAD_CAT_ID":42812,"ELEMENT_SET_NO":999,"REV_AT_EPOCH":26941,"BSTAR":3.603e-5,"MEAN_MOTION_DOT":1.21e-6,"MEAN_MOTION_DDOT":0},{"OBJECT_NAME":"IRIDIUM 133","OBJECT_ID":"2017-061A","EPOCH":"2022-08-18T10:50:39.397632","MEAN_MOTION":14.34218909,"ECCENTRICITY":0.0002038,"INCLINATION":86.3935,"RA_OF_ASC_NODE":249.7302,"ARG_OF_PERICENTER":87.1959,"MEAN_ANOMALY":272.9471,"EPHEMERIS_TYPE":0,"CLASSIFICATION_TYPE":"U","NORAD_CAT_ID":42955,"ELEMENT_SET_NO":999,"REV_AT_EPOCH":25429,"BSTAR":4.0669e-5,"MEAN_MOTION_DOT":1.34e-6,"MEAN_MOTION_DDOT":0},{"OBJECT_NAME":"IRIDIUM 100","OBJECT_ID":"2017-061B","EPOCH":"2022-08-19T01:45:43.405920","MEAN_MOTION":14.34218861,"ECCENTRICITY":0.000219,"INCLINATION":86.3932,"RA_OF_ASC_NODE":249.4222,"ARG_OF_PERICENTER":91.6581,"MEAN_ANOMALY":268.4866,"EPHEMERIS_TYPE":0,"CLASSIFICATION_TYPE":"U","NORAD_CAT_ID":42956,"ELEMENT_SET_NO":999,"REV_AT_EPOCH":25440,"BSTAR":3.8392e-5,"MEAN_MOTION_DOT":1.27e-6,"MEAN_MOTION_DDOT":0},{"OBJECT_NAME":"IRIDIUM 122","OBJECT_ID":"2017-061C","EPOCH":"2022-08-18T11:36:17.280576","MEAN_MOTION":14.34221565,"ECCENTRICITY":0.0001939,"INCLINATION":86.3932,"RA_OF_ASC_NODE":249.6657,"ARG_OF_PERICENTER":86.6462,"MEAN_ANOMALY":273.4955,"EPHEMERIS_TYPE":0,"CLASSIFICATION_TYPE":"U","NORAD_CAT_ID":42957,"ELEMENT_SET_NO":999,"REV_AT_EPOCH":25430,"BSTAR":3.6053e-5,"MEAN_MOTION_DOT":1.21e-6,"MEAN_MOTION_DDOT":0},{"OBJECT_NAME":"IRIDIUM 129","OBJECT_ID":"2017-061D","EPOCH":"2022-08-19T03:17:02.737536","MEAN_MOTION":14.34219728,"ECCENTRICITY":0.0002014,"INCLINATION":86.3933,"RA_OF_ASC_NODE":249.4446,"ARG_OF_PERICENTER":85.8831,"MEAN_ANOMALY":274.2595,"EPHEMERIS_TYPE":0,"CLASSIFICATION_TYPE":"U","NORAD_CAT_ID":42958,"ELEMENT_SET_NO":999,"REV_AT_EPOCH":25441,"BSTAR":3.7222e-5,"MEAN_MOTION_DOT":1.24e-6,"MEAN_MOTION_DDOT":0},{"OBJECT_NAME":"IRIDIUM 119","OBJECT_ID":"2017-061E","EPOCH":"2022-08-18T11:27:10.107648","MEAN_MOTION":14.34218497,"ECCENTRICITY":0.0002091,"INCLINATION":86.3934,"RA_OF_ASC_NODE":249.7092,"ARG_OF_PERICENTER":85.8181,"MEAN_ANOMALY":274.3254,"EPHEMERIS_TYPE":0,"CLASSIFICATION_TYPE":"U","NORAD_CAT_ID":42959,"ELEMENT_SET_NO":999,"REV_AT_EPOCH":25433,"BSTAR":3.73e-5,"MEAN_MOTION_DOT":1.24e-6,"MEAN_MOTION_DDOT":0},{"OBJECT_NAME":"IRIDIUM 107","OBJECT_ID":"2017-061F","EPOCH":"2022-08-18T11:54:34.903584","MEAN_MOTION":14.34215022,"ECCENTRICITY":0.0002139,"INCLINATION":86.3935,"RA_OF_ASC_NODE":249.7139,"ARG_OF_PERICENTER":90.3335,"MEAN_ANOMALY":269.8106,"EPHEMERIS_TYPE":0,"CLASSIFICATION_TYPE":"U","NORAD_CAT_ID":42960,"ELEMENT_SET_NO":999,"REV_AT_EPOCH":25435,"BSTAR":3.2932e-5,"MEAN_MOTION_DOT":1.12e-6,"MEAN_MOTION_DDOT":0},{"OBJECT_NAME":"IRIDIUM 132","OBJECT_ID":"2017-061G","EPOCH":"2022-08-18T13:44:10.900032","MEAN_MOTION":14.34215686,"ECCENTRICITY":0.0002032,"INCLINATION":86.3934,"RA_OF_ASC_NODE":249.6701,"ARG_OF_PERICENTER":94.8653,"MEAN_ANOMALY":265.2775,"EPHEMERIS_TYPE":0,"CLASSIFICATION_TYPE":"U","NORAD_CAT_ID":42961,"ELEMENT_SET_NO":999,"REV_AT_EPOCH":25435,"BSTAR":3.4815e-5,"MEAN_MOTION_DOT":1.17e-6,"MEAN_MOTION_DDOT":0},{"OBJECT_NAME":"IRIDIUM 136","OBJECT_ID":"2017-061H","EPOCH":"2022-08-18T11:08:55.081824","MEAN_MOTION":14.34219429,"ECCENTRICITY":0.0002169,"INCLINATION":86.3935,"RA_OF_ASC_NODE":249.7164,"ARG_OF_PERICENTER":84.0426,"MEAN_ANOMALY":276.1017,"EPHEMERIS_TYPE":0,"CLASSIFICATION_TYPE":"U","NORAD_CAT_ID":42962,"ELEMENT_SET_NO":999,"REV_AT_EPOCH":25435,"BSTAR":3.9291e-5,"MEAN_MOTION_DOT":1.3e-6,"MEAN_MOTION_DDOT":0},{"OBJECT_NAME":"IRIDIUM 139","OBJECT_ID":"2017-061J","EPOCH":"2022-08-17T10:11:02.836896","MEAN_MOTION":14.34219014,"ECCENTRICITY":0.0002059,"INCLINATION":86.3935,"RA_OF_ASC_NODE":250.1912,"ARG_OF_PERICENTER":91.458,"MEAN_ANOMALY":268.6852,"EPHEMERIS_TYPE":0,"CLASSIFICATION_TYPE":"U","NORAD_CAT_ID":42963,"ELEMENT_SET_NO":999,"REV_AT_EPOCH":25421,"BSTAR":3.2781e-5,"MEAN_MOTION_DOT":1.12e-6,"MEAN_MOTION_DDOT":0},{"OBJECT_NAME":"IRIDIUM 125","OBJECT_ID":"2017-061K","EPOCH":"2022-08-18T10:59:46.888512","MEAN_MOTION":14.34219233,"ECCENTRICITY":0.0002053,"INCLINATION":86.3937,"RA_OF_ASC_NODE":249.7944,"ARG_OF_PERICENTER":91.3552,"MEAN_ANOMALY":268.7879,"EPHEMERIS_TYPE":0,"CLASSIFICATION_TYPE":"U","NORAD_CAT_ID":42964,"ELEMENT_SET_NO":999,"REV_AT_EPOCH":25437,"BSTAR":3.9986e-5,"MEAN_MOTION_DOT":1.32e-6,"MEAN_MOTION_DDOT":0},{"OBJECT_NAME":"IRIDIUM 135","OBJECT_ID":"2017-083A","EPOCH":"2022-08-18T03:40:38.987328","MEAN_MOTION":14.34220284,"ECCENTRICITY":0.0002475,"INCLINATION":86.4022,"RA_OF_ASC_NODE":186.6924,"ARG_OF_PERICENTER":90.2179,"MEAN_ANOMALY":269.93,"EPHEMERIS_TYPE":0,"CLASSIFICATION_TYPE":"U","NORAD_CAT_ID":43070,"ELEMENT_SET_NO":999,"REV_AT_EPOCH":24362,"BSTAR":6.8327e-5,"MEAN_MOTION_DOT":2.11e-6,"MEAN_MOTION_DDOT":0},{"OBJECT_NAME":"IRIDIUM 138","OBJECT_ID":"2017-083B","EPOCH":"2022-08-18T07:38:07.226016","MEAN_MOTION":14.34219515,"ECCENTRICITY":0.0002111,"INCLINATION":86.4012,"RA_OF_ASC_NODE":186.4249,"ARG_OF_PERICENTER":81.7446,"MEAN_ANOMALY":278.3989,"EPHEMERIS_TYPE":0,"CLASSIFICATION_TYPE":"U","NORAD_CAT_ID":43071,"ELEMENT_SET_NO":999,"REV_AT_EPOCH":24363,"BSTAR":7.0777e-5,"MEAN_MOTION_DOT":2.18e-6,"MEAN_MOTION_DDOT":0},{"OBJECT_NAME":"IRIDIUM 116","OBJECT_ID":"2017-083C","EPOCH":"2022-08-18T15:14:47.283072","MEAN_MOTION":14.34217264,"ECCENTRICITY":0.0002503,"INCLINATION":86.4022,"RA_OF_ASC_NODE":186.4938,"ARG_OF_PERICENTER":82.1752,"MEAN_ANOMALY":277.9728,"EPHEMERIS_TYPE":0,"CLASSIFICATION_TYPE":"U","NORAD_CAT_ID":43072,"ELEMENT_SET_NO":999,"REV_AT_EPOCH":24371,"BSTAR":6.2446e-5,"MEAN_MOTION_DOT":1.95e-6,"MEAN_MOTION_DDOT":0},{"OBJECT_NAME":"IRIDIUM 130","OBJECT_ID":"2017-083D","EPOCH":"2022-08-19T05:33:19.574784","MEAN_MOTION":14.34216427,"ECCENTRICITY":0.0002161,"INCLINATION":86.4032,"RA_OF_ASC_NODE":186.3835,"ARG_OF_PERICENTER":79.4115,"MEAN_ANOMALY":280.7324,"EPHEMERIS_TYPE":0,"CLASSIFICATION_TYPE":"U","NORAD_CAT_ID":43073,"ELEMENT_SET_NO":999,"REV_AT_EPOCH":24374,"BSTAR":6.6646e-5,"MEAN_MOTION_DOT":2.06e-6,"MEAN_MOTION_DDOT":0}]